{"type": "FeatureCollection", "features": [ {"type": "Feature", "properties": {"norad_id": 43262, "name": "GAOFEN-1 04", "group": "resource", "lat": -13.480404369349266, "lon": 38.19188902598563, "alt_km": 644.9678531935051, "timestamp": "2025-12-04T09:47:37.180346+00:00", "meta": {"OBJECT_NAME": "GAOFEN-1 04", "OBJECT_ID": "2018-031D", "EPOCH": "2025-12-04T00:05:45.553344", "MEAN_MOTION": 14.76421762, "ECCENTRICITY": 0.00013325, "INCLINATION": 98.082, "RA_OF_ASC_NODE": 35.8356, "ARG_OF_PERICENTER": 62.0421, "MEAN_ANOMALY": 298.0923, "EPHEMERIS_TYPE": 0, "CLASSIFICATION_TYPE": "U", "NORAD_CAT_ID": 43262, "ELEMENT_SET_NO": 999, "REV_AT_EPOCH": 41388, "BSTAR": 0.00027267853, "MEAN_MOTION_DOT": 1.844e-05, "MEAN_MOTION_DDOT": 0}, "tle": {"line1": "1 43262U 18031D   25338.00399946  .00001844  00000+0  27268-3 0  9995", "line2": "2 43262  98.0820  35.8356 0001332  62.0421 298.0923 14.76421762413887"}}, "geometry": {"type": "Point", "coordinates": [38.19188902598563, -13.480404369349266]}}, {"type": "Feature", "properties": {"norad_id": 43437, "name": "SENTINEL-3B", "group": "resource", "lat": -21.21996875228081, "lon": -139.66732938033957, "alt_km": 807.906531164298, "timestamp": "2025-12-04T09:47:37.180360+00:00", "meta": {"OBJECT_NAME": "SENTINEL-3B", "OBJECT_ID": "2018-039A", "EPOCH": "2025-12-04T03:48:12.928608", "MEAN_MOTION": 14.26737832, "ECCENTRICITY": 0.0001479, "INCLINATION": 98.6278, "RA_OF_ASC_NODE": 43.4663, "ARG_OF_PERICENTER": 111.1167, "MEAN_ANOMALY": 249.0172, "EPHEMERIS_TYPE": 0, "CLASSIFICATION_TYPE": "U", "NORAD_CAT_ID": 43437, "ELEMENT_SET_NO": 999, "REV_AT_EPOCH": 39631, "BSTAR": 0.0001497, "MEAN_MOTION_DOT": 3.19e-06, "MEAN_MOTION_DDOT": 0}, "tle": {"line1": "1 43437U 18039A   25338.15848297  .00000319  00000+0  14970-3 0  9993", "line2": "2 43437  98.6278  43.4663 0001479 111.1167 249.0172 14.26737832396318"}}, "geometry": {"type": "Point", "coordinates": [-139.66732938033957, -21.21996875228081]}}, {"type": "Feature", "properties": {"norad_id": 43461, "name": "GAOFEN-5 01", "group": "resource", "lat": -78.54968842207127, "lon": 74.15165539421368, "alt_km": 699.5109000386901, "timestamp": "2025-12-04T09:47:37.180371+00:00", "meta": {"OBJECT_NAME": "GAOFEN-5 01", "OBJECT_ID": "2018-043A", "EPOCH": "2025-12-04T03:39:48.102048", "MEAN_MOTION": 14.60394722, "ECCENTRICITY": 0.000152, "INCLINATION": 98.4314, "RA_OF_ASC_NODE": 300.9707, "ARG_OF_PERICENTER": 8.4262, "MEAN_ANOMALY": 351.6962, "EPHEMERIS_TYPE": 0, "CLASSIFICATION_TYPE": "U", "NORAD_CAT_ID": 43461, "ELEMENT_SET_NO": 999, "REV_AT_EPOCH": 40322, "BSTAR": 0.00020656, "MEAN_MOTION_DOT": 9.51e-06, "MEAN_MOTION_DDOT": 0}, "tle": {"line1": "1 43461U 18043A   25338.15264007  .00000951  00000+0  20656-3 0  9996", "line2": "2 43461  98.4314 300.9707 0001520   8.4262 351.6962 14.60394722403226"}}, "geometry": {"type": "Point", "coordinates": [74.15165539421368, -78.54968842207127]}}, {"type": "Feature", "properties": {"norad_id": 43484, "name": "GAOFEN-6", "group": "resource", "lat": 44.92460520839632, "lon": -129.18324189461728, "alt_km": 629.9739433241048, "timestamp": "2025-12-04T09:47:37.180381+00:00", "meta": {"OBJECT_NAME": "GAOFEN-6", "OBJECT_ID": "2018-048A", "EPOCH": "2025-12-03T23:25:46.049088", "MEAN_MOTION": 14.76538589, "ECCENTRICITY": 0.00133194, "INCLINATION": 97.8043, "RA_OF_ASC_NODE": 42.5372, "ARG_OF_PERICENTER": 89.5887, "MEAN_ANOMALY": 270.685, "EPHEMERIS_TYPE": 0, "CLASSIFICATION_TYPE": "U", "NORAD_CAT_ID": 43484, "ELEMENT_SET_NO": 999, "REV_AT_EPOCH": 40458, "BSTAR": 0.0001092287, "MEAN_MOTION_DOT": 7.13e-06, "MEAN_MOTION_DDOT": 0}, "tle": {"line1": "1 43484U 18048A   25337.97622742  .00000713  00000+0  10923-3 0  9991", "line2": "2 43484  97.8043  42.5372 0013319  89.5887 270.6850 14.76538589404586"}}, "geometry": {"type": "Point", "coordinates": [-129.18324189461728, 44.92460520839632]}}, {"type": "Feature", "properties": {"norad_id": 43585, "name": "GAOFEN-11 01", "group": "resource", "lat": -68.56659105467837, "lon": 60.084750709404766, "alt_km": 425.65487821829356, "timestamp": "2025-12-04T09:47:37.180391+00:00", "meta": {"OBJECT_NAME": "GAOFEN-11 01", "OBJECT_ID": "2018-063A", "EPOCH": "2025-12-04T05:26:33.040320", "MEAN_MOTION": 15.48858422, "ECCENTRICITY": 0.0004897, "INCLINATION": 97.1577, "RA_OF_ASC_NODE": 41.2348, "ARG_OF_PERICENTER": 350.7618, "MEAN_ANOMALY": 9.3543, "EPHEMERIS_TYPE": 0, "CLASSIFICATION_TYPE": "U", "NORAD_CAT_ID": 43585, "ELEMENT_SET_NO": 999, "REV_AT_EPOCH": 41010, "BSTAR": 0.00054975, "MEAN_MOTION_DOT": 0.0002959, "MEAN_MOTION_DDOT": 0}, "tle": {"line1": "1 43585U 18063A   25338.22677130  .00029590  00000+0  54975-3 0  9999", "line2": "2 43585  97.1577  41.2348 0004897 350.7618   9.3543 15.48858422410100"}}, "geometry": {"type": "Point", "coordinates": [60.084750709404766, -68.56659105467837]}}, {"type": "Feature", "properties": {"norad_id": 43613, "name": "ICESAT-2", "group": "resource", "lat": -68.11050431854044, "lon": -116.5082269860102, "alt_km": 488.60505696921336, "timestamp": "2025-12-04T09:47:37.180401+00:00", "meta": {"OBJECT_NAME": "ICESAT-2", "OBJECT_ID": "2018-070A", "EPOCH": "2025-12-04T03:48:20.547360", "MEAN_MOTION": 15.28261749, "ECCENTRICITY": 4.06e-05, "INCLINATION": 92.0056, "RA_OF_ASC_NODE": 238.4208, "ARG_OF_PERICENTER": 138.9611, "MEAN_ANOMALY": 221.1669, "EPHEMERIS_TYPE": 0, "CLASSIFICATION_TYPE": "U", "NORAD_CAT_ID": 43613, "ELEMENT_SET_NO": 999, "REV_AT_EPOCH": 40267, "BSTAR": 0.00097167, "MEAN_MOTION_DOT": 0.00026796, "MEAN_MOTION_DDOT": 0}, "tle": {"line1": "1 43613U 18070A   25338.15857115  .00026796  00000+0  97167-3 0  9999", "line2": "2 43613  92.0056 238.4208 0000406 138.9611 221.1669 15.28261749402678"}}, "geometry": {"type": "Point", "coordinates": [-116.5082269860102, -68.11050431854044]}}, {"type": "Feature", "properties": {"norad_id": 43719, "name": "HYSIS", "group": "resource", "lat": 70.8284976158928, "lon": -114.67895168378446, "alt_km": 626.0302953449773, "timestamp": "2025-12-04T09:47:37.180411+00:00", "meta": {"OBJECT_NAME": "HYSIS", "OBJECT_ID": "2018-096A", "EPOCH": "2025-12-03T23:33:53.273376", "MEAN_MOTION": 14.78603565, "ECCENTRICITY": 0.00016224, "INCLINATION": 98.0109, "RA_OF_ASC_NODE": 41.0023, "ARG_OF_PERICENTER": 67.6656, "MEAN_ANOMALY": 292.4727, "EPHEMERIS_TYPE": 0, "CLASSIFICATION_TYPE": "U", "NORAD_CAT_ID": 43719, "ELEMENT_SET_NO": 999, "REV_AT_EPOCH": 37857, "BSTAR": 3.4560417e-05, "MEAN_MOTION_DOT": 2.01e-06, "MEAN_MOTION_DDOT": 0}, "tle": {"line1": "1 43719U 18096A   25337.98186659  .00000201  00000+0  34560-4 0  9994", "line2": "2 43719  98.0109  41.0023 0001622  67.6656 292.4727 14.78603565378578"}}, "geometry": {"type": "Point", "coordinates": [-114.67895168378446, 70.8284976158928]}}, {"type": "Feature", "properties": {"norad_id": 43783, "name": "KAZSTSAT", "group": "resource", "lat": 80.40323035986732, "lon": -36.80656937351194, "alt_km": 561.0525079250538, "timestamp": "2025-12-04T09:47:37.180422+00:00", "meta": {"OBJECT_NAME": "KAZSTSAT", "OBJECT_ID": "2018-099AB", "EPOCH": "2025-12-04T01:24:44.238240", "MEAN_MOTION": 14.99307288, "ECCENTRICITY": 0.000649, "INCLINATION": 97.4553, "RA_OF_ASC_NODE": 13.6171, "ARG_OF_PERICENTER": 2.5271, "MEAN_ANOMALY": 357.5985, "EPHEMERIS_TYPE": 0, "CLASSIFICATION_TYPE": "U", "NORAD_CAT_ID": 43783, "ELEMENT_SET_NO": 999, "REV_AT_EPOCH": 38206, "BSTAR": 0.00027332, "MEAN_MOTION_DOT": 3.283e-05, "MEAN_MOTION_DDOT": 0}, "tle": {"line1": "1 43783U 18099AB  25338.05884535  .00003283  00000+0  27332-3 0  9996", "line2": "2 43783  97.4553  13.6171 0006490   2.5271 357.5985 14.99307288382067"}}, "geometry": {"type": "Point", "coordinates": [-36.80656937351194, 80.40323035986732]}}, {"type": "Feature", "properties": {"norad_id": 43831, "name": "SAUDISAT 5A", "group": "resource", "lat": 69.23533961278893, "lon": 18.89424848656181, "alt_km": 475.67042508428403, "timestamp": "2025-12-04T09:47:37.180434+00:00", "meta": {"OBJECT_NAME": "SAUDISAT 5A", "OBJECT_ID": "2018-102A", "EPOCH": "2025-12-04T04:45:47.152224", "MEAN_MOTION": 15.25491305, "ECCENTRICITY": 0.0011782, "INCLINATION": 97.3371, "RA_OF_ASC_NODE": 38.5555, "ARG_OF_PERICENTER": 102.4611, "MEAN_ANOMALY": 257.7946, "EPHEMERIS_TYPE": 0, "CLASSIFICATION_TYPE": "U", "NORAD_CAT_ID": 43831, "ELEMENT_SET_NO": 999, "REV_AT_EPOCH": 38592, "BSTAR": 0.0005636, "MEAN_MOTION_DOT": 0.00014242, "MEAN_MOTION_DDOT": 0}, "tle": {"line1": "1 43831U 18102A   25338.19846241  .00014242  00000+0  56360-3 0  9992", "line2": "2 43831  97.3371  38.5555 0011782 102.4611 257.7946 15.25491305385928"}}, "geometry": {"type": "Point", "coordinates": [18.89424848656181, 69.23533961278893]}}, {"type": "Feature", "properties": {"norad_id": 43833, "name": "SAUDISAT 5B", "group": "resource", "lat": 66.5704030263154, "lon": -121.1942894004014, "alt_km": 473.26236776166115, "timestamp": "2025-12-04T09:47:37.180445+00:00", "meta": {"OBJECT_NAME": "SAUDISAT 5B", "OBJECT_ID": "2018-102C", "EPOCH": "2025-12-04T04:34:56.496288", "MEAN_MOTION": 15.25848702, "ECCENTRICITY": 0.0012494, "INCLINATION": 97.3466, "RA_OF_ASC_NODE": 41.2713, "ARG_OF_PERICENTER": 105.046, "MEAN_ANOMALY": 255.2162, "EPHEMERIS_TYPE": 0, "CLASSIFICATION_TYPE": "U", "NORAD_CAT_ID": 43833, "ELEMENT_SET_NO": 999, "REV_AT_EPOCH": 38603, "BSTAR": 0.00054531, "MEAN_MOTION_DOT": 0.00013929, "MEAN_MOTION_DDOT": 0}, "tle": {"line1": "1 43833U 18102C   25338.19093167  .00013929  00000+0  54531-3 0  9994", "line2": "2 43833  97.3466  41.2713 0012494 105.0460 255.2162 15.25848702386037"}}, "geometry": {"type": "Point", "coordinates": [-121.1942894004014, 66.5704030263154]}}]}